[{"OBJECT_NAME":"OBJECT L","OBJECT_ID":"2023-085L","EPOCH":"2026-03-09T23:02:21.999840","MEAN_MOTION":15.29079976,"ECCENTRICITY":0.0005428,"INCLINATION":97.486,"RA_OF_ASC_NODE":178.8598,"ARG_OF_PERICENTER":50.8528,"MEAN_ANOMALY":309.3193,"EPHEMERIS_TYPE":0,"CLASSIFICATION_TYPE":"U","NORAD_CAT_ID":57014,"ELEMENT_SET_NO":999,"REV_AT_EPOCH":15144,"BSTAR":0.00063462603,"MEAN_MOTION_DOT":0.00017871,"MEAN_MOTION_DDOT":0},{"OBJECT_NAME":"STARLINK-32598","OBJECT_ID":"2024-216Q","EPOCH":"2026-03-09T21:38:52.545984","MEAN_MOTION":15.27570851,"ECCENTRICITY":0.00015201,"INCLINATION":43.0025,"RA_OF_ASC_NODE":254.6468,"ARG_OF_PERICENTER":259.1292,"MEAN_ANOMALY":100.9388,"EPHEMERIS_TYPE":0,"CLASSIFICATION_TYPE":"U","NORAD_CAT_ID":62046,"ELEMENT_SET_NO":999,"REV_AT_EPOCH":7391,"BSTAR":0.0012633396,"MEAN_MOTION_DOT":0.00034656,"MEAN_MOTION_DDOT":0}]
